[{"OBJECT_NAME":"STARLINK-34763","OBJECT_ID":"2025-176J","EPOCH":"2026-03-09T11:58:49.171008","MEAN_MOTION":15.30192058,"ECCENTRICITY":0.00010749,"INCLINATION":53.1597,"RA_OF_ASC_NODE":153.4452,"ARG_OF_PERICENTER":65.1532,"MEAN_ANOMALY":294.958,"EPHEMERIS_TYPE":0,"CLASSIFICATION_TYPE":"U","NORAD_CAT_ID":65206,"ELEMENT_SET_NO":999,"REV_AT_EPOCH":3308,"BSTAR":0.00098796265,"MEAN_MOTION_DOT":0.00029008,"MEAN_MOTION_DDOT":0},{"OBJECT_NAME":"OBJECT P","OBJECT_ID":"2018-099P","EPOCH":"2026-03-09T16:35:55.790016","MEAN_MOTION":15.30834106,"ECCENTRICITY":0.00076856,"INCLINATION":97.4366,"RA_OF_ASC_NODE":131.9195,"ARG_OF_PERICENTER":276.7627,"MEAN_ANOMALY":83.2739,"EPHEMERIS_TYPE":0,"CLASSIFICATION_TYPE":"U","NORAD_CAT_ID":43771,"ELEMENT_SET_NO":999,"REV_AT_EPOCH":39830,"BSTAR":0.00063632878,"MEAN_MOTION_DOT":0.00018926,"MEAN_MOTION_DDOT":0}]
